IRIDIUM 57 [-]          
1 25273U 98019B   23281.59721949  .00000978  00000+0  33726-3 0  9995
2 25273  86.3983  43.8572 0002135  91.9469 268.1972 14.34928579336195
IRIDIUM 63 [-]          
1 25286U 98021B   23281.57339486  .00000804  00000+0  27327-3 0  9999
2 25286  86.4019 340.8417 0002397  94.2756 265.8714 14.35436454335210
IRIDIUM 69 [-]          
1 25319U 98026A   23281.47389662  .00001180  00000+0  37182-3 0  9999
2 25319  86.4039 355.9905 0000532 179.5489 180.5710 14.39604897334150
IRIDIUM 71 [-]          
1 25320U 98026B   23281.60021182  .00001006  00000+0  31371-3 0  9997
2 25320  86.4027 350.7726 0001858  30.6466 329.4841 14.39940204334689
IRIDIUM 73 [-]          
1 25344U 98032C   23281.57115976  .00001029  00000+0  26035-3 0  9997
2 25344  86.4389 308.6316 0001642  89.6548 270.4845 14.50055756341015
IRIDIUM 82 [-]          
1 25467U 98051A   23281.37972947  .00017219  00000+0  10089-2 0  9990
2 25467  86.3967  44.6058 0148523  64.6062 297.0461 15.02738886330439
IRIDIUM 2 [-]           
1 25527U 98066A   23281.57259878  .00049617  00000+0  11837-2 0  9995
2 25527  85.5157 102.5334 0004166 205.1879 154.9172 15.41343811368592
